CCSDS_OMM_VERS = 2.0
CREATION_DATE  = 
ORIGINATOR     = 

OBJECT_NAME    = SL-16 R/B
OBJECT_ID      = 1998-045B
CENTER_NAME    = EARTH
REF_FRAME      = TEME
TIME_SYSTEM    = UTC
MEAN_ELEMENT_THEORY = SGP/SGP4

EPOCH          = 2026-03-27T03:51:30.445920
MEAN_MOTION    = 14.16194562
ECCENTRICITY   = .0007899
INCLINATION    = 71.0105
RA_OF_ASC_NODE = 144.8354
ARG_OF_PERICENTER = 340.8164
MEAN_ANOMALY   = 19.2661

EPHEMERIS_TYPE = 0
CLASSIFICATION_TYPE = U
NORAD_CAT_ID   = 25407
ELEMENT_SET_NO = 999
REV_AT_EPOCH   = 42957
BSTAR          = -.10315E-3
MEAN_MOTION_DOT = -.252E-5
MEAN_MOTION_DDOT = 0

CCSDS_OMM_VERS = 2.0
CREATION_DATE  = 
ORIGINATOR     = 

OBJECT_NAME    = ISS (ZARYA)
OBJECT_ID      = 1998-067A
CENTER_NAME    = EARTH
REF_FRAME      = TEME
TIME_SYSTEM    = UTC
MEAN_ELEMENT_THEORY = SGP/SGP4

EPOCH          = 2026-03-27T03:10:20.924832
MEAN_MOTION    = 15.48575012
ECCENTRICITY   = .0006239
INCLINATION    = 51.6343
RA_OF_ASC_NODE = 346.1324
ARG_OF_PERICENTER = 237.1062
MEAN_ANOMALY   = 122.9326

EPHEMERIS_TYPE = 0
CLASSIFICATION_TYPE = U
NORAD_CAT_ID   = 25544
ELEMENT_SET_NO = 999
REV_AT_EPOCH   = 55903
BSTAR          = .24583E-3
MEAN_MOTION_DOT = .12923E-3
MEAN_MOTION_DDOT = 0

CCSDS_OMM_VERS = 2.0
CREATION_DATE  = 
ORIGINATOR     = 

OBJECT_NAME    = CZ-4B R/B
OBJECT_ID      = 1999-025C
CENTER_NAME    = EARTH
REF_FRAME      = TEME
TIME_SYSTEM    = UTC
MEAN_ELEMENT_THEORY = SGP/SGP4

EPOCH          = 2026-03-27T03:54:38.683008
MEAN_MOTION    = 14.18268695
ECCENTRICITY   = .003604
INCLINATION    = 98.6591
RA_OF_ASC_NODE = 130.0279
ARG_OF_PERICENTER = 295.3328
MEAN_ANOMALY   = 133.5427

EPHEMERIS_TYPE = 0
CLASSIFICATION_TYPE = U
NORAD_CAT_ID   = 25732
ELEMENT_SET_NO = 999
REV_AT_EPOCH   = 39064
BSTAR          = .47642E-4
MEAN_MOTION_DOT = .55E-6
MEAN_MOTION_DDOT = 0

CCSDS_OMM_VERS = 2.0
CREATION_DATE  = 
ORIGINATOR     = 

OBJECT_NAME    = OKEAN-O
OBJECT_ID      = 1999-039A
CENTER_NAME    = EARTH
REF_FRAME      = TEME
TIME_SYSTEM    = UTC
MEAN_ELEMENT_THEORY = SGP/SGP4

EPOCH          = 2026-03-27T03:48:13.949856
MEAN_MOTION    = 14.80362711
ECCENTRICITY   = .0000883
INCLINATION    = 97.9406
RA_OF_ASC_NODE = 145.8693
ARG_OF_PERICENTER = 89.0311
MEAN_ANOMALY   = 271.1002

EPHEMERIS_TYPE = 0
CLASSIFICATION_TYPE = U
NORAD_CAT_ID   = 25860
ELEMENT_SET_NO = 999
REV_AT_EPOCH   = 43697
BSTAR          = .97488E-4
MEAN_MOTION_DOT = .692E-5
MEAN_MOTION_DDOT = 0

CCSDS_OMM_VERS = 2.0
CREATION_DATE  = 
ORIGINATOR     = 

OBJECT_NAME    = SL-16 R/B
OBJECT_ID      = 1999-039B
CENTER_NAME    = EARTH
REF_FRAME      = TEME
TIME_SYSTEM    = UTC
MEAN_ELEMENT_THEORY = SGP/SGP4

EPOCH          = 2026-03-27T02:55:35.863968
MEAN_MOTION    = 14.81754602
ECCENTRICITY   = .0014416
INCLINATION    = 97.9929
RA_OF_ASC_NODE = 145.1894
ARG_OF_PERICENTER = 195.7764
MEAN_ANOMALY   = 164.3002

EPHEMERIS_TYPE = 0
CLASSIFICATION_TYPE = U
NORAD_CAT_ID   = 25861
ELEMENT_SET_NO = 999
REV_AT_EPOCH   = 43944
BSTAR          = .78526E-4
MEAN_MOTION_DOT = .566E-5
MEAN_MOTION_DDOT = 0

CCSDS_OMM_VERS = 2.0
CREATION_DATE  = 
ORIGINATOR     = 

OBJECT_NAME    = DELTA 2 R/B
OBJECT_ID      = 1999-041E
CENTER_NAME    = EARTH
REF_FRAME      = TEME
TIME_SYSTEM    = UTC
MEAN_ELEMENT_THEORY = SGP/SGP4

EPOCH          = 2026-03-27T01:39:03.907872
MEAN_MOTION    = 14.11875892
ECCENTRICITY   = .0502646
INCLINATION    = 51.7606
RA_OF_ASC_NODE = 231.8559
ARG_OF_PERICENTER = 39.6875
MEAN_ANOMALY   = 323.9733

EPHEMERIS_TYPE = 0
CLASSIFICATION_TYPE = U
NORAD_CAT_ID   = 25876
ELEMENT_SET_NO = 999
REV_AT_EPOCH   = 36548
BSTAR          = .16794E-3
MEAN_MOTION_DOT = .798E-5
MEAN_MOTION_DDOT = 0

CCSDS_OMM_VERS = 2.0
CREATION_DATE  = 
ORIGINATOR     = 

OBJECT_NAME    = HELIOS 1B
OBJECT_ID      = 1999-064A
CENTER_NAME    = EARTH
REF_FRAME      = TEME
TIME_SYSTEM    = UTC
MEAN_ELEMENT_THEORY = SGP/SGP4

EPOCH          = 2026-03-27T04:49:05.131776
MEAN_MOTION    = 14.87763621
ECCENTRICITY   = .0001923
INCLINATION    = 98.1676
RA_OF_ASC_NODE = 348.9572
ARG_OF_PERICENTER = 50.9616
MEAN_ANOMALY   = 309.1770

EPHEMERIS_TYPE = 0
CLASSIFICATION_TYPE = U
NORAD_CAT_ID   = 25977
ELEMENT_SET_NO = 999
REV_AT_EPOCH   = 68786
BSTAR          = .18666E-3
MEAN_MOTION_DOT = .1645E-4
MEAN_MOTION_DDOT = 0

CCSDS_OMM_VERS = 2.0
CREATION_DATE  = 
ORIGINATOR     = 

OBJECT_NAME    = TERRA
OBJECT_ID      = 1999-068A
CENTER_NAME    = EARTH
REF_FRAME      = TEME
TIME_SYSTEM    = UTC
MEAN_ELEMENT_THEORY = SGP/SGP4

EPOCH          = 2026-03-27T04:26:44.021472
MEAN_MOTION    = 14.61032660
ECCENTRICITY   = .0003525
INCLINATION    = 97.9556
RA_OF_ASC_NODE = 138.9485
ARG_OF_PERICENTER = 115.0425
MEAN_ANOMALY   = 337.8418

EPHEMERIS_TYPE = 0
CLASSIFICATION_TYPE = U
NORAD_CAT_ID   = 25994
ELEMENT_SET_NO = 999
REV_AT_EPOCH   = 39763
BSTAR          = .94426E-4
MEAN_MOTION_DOT = .419E-5
MEAN_MOTION_DDOT = 0

CCSDS_OMM_VERS = 2.0
CREATION_DATE  = 
ORIGINATOR     = 

OBJECT_NAME    = SL-16 R/B
OBJECT_ID      = 2000-006B
CENTER_NAME    = EARTH
REF_FRAME      = TEME
TIME_SYSTEM    = UTC
MEAN_ELEMENT_THEORY = SGP/SGP4

EPOCH          = 2026-03-27T04:20:17.734848
MEAN_MOTION    = 14.15826061
ECCENTRICITY   = .0015833
INCLINATION    = 71.0016
RA_OF_ASC_NODE = 61.0558
ARG_OF_PERICENTER = 162.4820
MEAN_ANOMALY   = 197.6853

EPHEMERIS_TYPE = 0
CLASSIFICATION_TYPE = U
NORAD_CAT_ID   = 26070
ELEMENT_SET_NO = 999
REV_AT_EPOCH   = 35103
BSTAR          = .1802E-3
MEAN_MOTION_DOT = .307E-5
MEAN_MOTION_DDOT = 0

CCSDS_OMM_VERS = 2.0
CREATION_DATE  = 
ORIGINATOR     = 

OBJECT_NAME    = TITAN 4B R/B
OBJECT_ID      = 2000-047B
CENTER_NAME    = EARTH
REF_FRAME      = TEME
TIME_SYSTEM    = UTC
MEAN_ELEMENT_THEORY = SGP/SGP4

EPOCH          = 2026-03-27T04:30:15.285888
MEAN_MOTION    = 15.09722296
ECCENTRICITY   = .0039812
INCLINATION    = 67.9913
RA_OF_ASC_NODE = 351.3024
ARG_OF_PERICENTER = 14.9137
MEAN_ANOMALY   = 345.3176

EPHEMERIS_TYPE = 0
CLASSIFICATION_TYPE = U
NORAD_CAT_ID   = 26474
ELEMENT_SET_NO = 999
REV_AT_EPOCH   = 39555
BSTAR          = .23469E-3
MEAN_MOTION_DOT = .3727E-4
MEAN_MOTION_DDOT = 0

CCSDS_OMM_VERS = 2.0
CREATION_DATE  = 
ORIGINATOR     = 

OBJECT_NAME    = ENVISAT
OBJECT_ID      = 2002-009A
CENTER_NAME    = EARTH
REF_FRAME      = TEME
TIME_SYSTEM    = UTC
MEAN_ELEMENT_THEORY = SGP/SGP4

EPOCH          = 2026-03-26T20:20:54.366144
MEAN_MOTION    = 14.39042714
ECCENTRICITY   = .00012216
INCLINATION    = 98.3755
RA_OF_ASC_NODE = 39.0396
ARG_OF_PERICENTER = 81.5064
MEAN_ANOMALY   = 298.9111

EPHEMERIS_TYPE = 0
CLASSIFICATION_TYPE = U
NORAD_CAT_ID   = 27386
ELEMENT_SET_NO = 999
REV_AT_EPOCH   = 26164
BSTAR          = .52945247E-4
MEAN_MOTION_DOT = .121E-5
MEAN_MOTION_DDOT = 0

CCSDS_OMM_VERS = 2.0
CREATION_DATE  = 
ORIGINATOR     = 

OBJECT_NAME    = IDEFIX & ARIANE 42P R/B
OBJECT_ID      = 2002-021B
CENTER_NAME    = EARTH
REF_FRAME      = TEME
TIME_SYSTEM    = UTC
MEAN_ELEMENT_THEORY = SGP/SGP4

EPOCH          = 2026-03-26T20:03:45.574560
MEAN_MOTION    = 14.31037480
ECCENTRICITY   = .0012529
INCLINATION    = 98.5889
RA_OF_ASC_NODE = 24.2393
ARG_OF_PERICENTER = 132.9462
MEAN_ANOMALY   = 227.2774

EPHEMERIS_TYPE = 0
CLASSIFICATION_TYPE = U
NORAD_CAT_ID   = 27422
ELEMENT_SET_NO = 999
REV_AT_EPOCH   = 24647
BSTAR          = .12741578E-3
MEAN_MOTION_DOT = .292E-5
MEAN_MOTION_DDOT = 0

